ONEWEB-0228             
1 48780U 21045P   24131.81046090 -.00000217  00000+0 -61055-3 0  9999
2 48780  87.9048  51.8848 0001842  82.8007 277.3332 13.15549738143437
